NORAD_CAT_ID,OBJECT_NAME,OBJECT_TYPE,EPOCH,MEAN_MOTION,ECCENTRICITY,INCLINATION,RA_OF_ASC_NODE,ARG_OF_PERICENTER,MEAN_ANOMALY,BSTAR,MEAN_MOTION_DOT,MEAN_MOTION_DDOT,TLE_LINE0,TLE_LINE1,TLE_LINE2,SEMIMAJOR_AXIS,PERIOD,APOGEE,PERIGEE,DECAYED
50820.0,STARLINK-3339,PAYLOAD,2023-02-23 15:11:48,15.08845752,9.48e-05,53.2144,112.3556,94.2146,265.8955,6.1465e-05,6.91e-06,0.0,0 STARLINK-3339,1 50820U 22001T   23054.63319841  .00000691  00000-0  61465-4 0  9991,2 50820  53.2144 112.3556 0000948  94.2146 265.8955 15.08845752 64102,6917.863,95.437,540.384,539.072,0.0
50820.0,STARLINK-3339,PAYLOAD,2023-02-24 07:05:40,15.08838071,0.0001022,53.2134,109.3808,107.0963,253.0141,9.7487e-05,1.264e-05,0.0,0 STARLINK-3339,1 50820U 22001T   23055.29560258  .00001264  00000-0  97487-4 0  9994,2 50820  53.2134 109.3808 0001022 107.0963 253.0141 15.08838071 64204,6917.886,95.438,540.458,539.044,0.0
50820.0,STARLINK-3339,PAYLOAD,2023-02-24 13:27:11,15.08851909,9.47e-05,53.2148,108.1935,98.0788,262.0311,0.00017555,2.508e-05,0.0,0 STARLINK-3339,1 50820U 22001T   23055.56055547  .00002508  00000-0  17555-3 0  9993,2 50820  53.2148 108.1935 0000947  98.0788 262.0311 15.08851909 62961,6917.844,95.437,540.364,539.054,0.0
50820.0,STARLINK-3339,PAYLOAD,2023-02-25 05:21:04,15.0882567,0.000108,53.2149,105.219,117.9869,242.1232,-8.5432e-05,-1.647e-05,0.0,0 STARLINK-3339,1 50820U 22001T   23056.22297116 -.00001647  00000-0 -85432-4 0  9992,2 50820  53.2149 105.2190 0001080 117.9869 242.1232 15.08825670 64344,6917.924,95.438,540.536,539.042,0.0
50820.0,STARLINK-3339,PAYLOAD,2023-02-25 13:18:00,15.0883697,0.0001107,53.2147,103.7326,111.9834,248.1275,0.00020198,2.928e-05,0.0,0 STARLINK-3339,1 50820U 22001T   23056.55416986  .00002928  00000-0  20198-3 0  9994,2 50820  53.2147 103.7326 0001107 111.9834 248.1275 15.08836970 64395,6917.89,95.438,540.52,538.989,0.0
50820.0,STARLINK-3339,PAYLOAD,2023-02-25 19:39:33,15.0883618,0.0001093,53.2146,102.5433,114.8926,245.218,0.00030596,4.584e-05,0.0,0 STARLINK-3339,1 50820U 22001T   23056.81913195  .00004584  00000-0  30596-3 0  9990,2 50820  53.2146 102.5433 0001093 114.8926 245.2180 15.08836180 63157,6917.892,95.438,540.513,539.001,0.0
50820.0,STARLINK-3339,PAYLOAD,2023-02-26 09:58:00,15.0886698,0.0001105,53.2146,99.8669,113.2747,246.8361,0.0012773,0.00020114,0.0,0 STARLINK-3339,1 50820U 22001T   23057.41528688  .00020114  00000-0  12773-2 0  9999,2 50820  53.2146  99.8669 0001105 113.2747 246.8361 15.08866980 64525,6917.798,95.436,540.427,538.899,0.0
50820.0,STARLINK-3339,PAYLOAD,2023-02-26 13:08:46,15.08872938,0.0001097,53.2145,99.2723,113.6701,246.4406,0.0013217,0.00020828,0.0,0 STARLINK-3339,1 50820U 22001T   23057.54776420  .00020828  00000-0  13217-2 0  9998,2 50820  53.2145  99.2723 0001097 113.6701 246.4406 15.08872938 63269,6917.78,95.435,540.404,538.886,0.0
50820.0,STARLINK-3339,PAYLOAD,2023-02-26 19:30:19,15.08846195,0.0001064,53.2151,98.0833,97.8587,262.2526,1.7612e-05,-7e-08,0.0,0 STARLINK-3339,1 50820U 22001T   23057.81272709 -.00000007  00000-0  17612-4 0  9992,2 50820  53.2151  98.0833 0001064  97.8587 262.2526 15.08846195 64585,6917.861,95.437,540.463,538.99,0.0
50820.0,STARLINK-3339,PAYLOAD,2023-02-27 09:48:47,15.08854061,9.35e-05,53.2143,95.4066,91.7656,268.3443,0.00087641,0.00013693,0.0,0 STARLINK-3339,1 50820U 22001T   23058.40888840  .00013693  00000-0  87641-3 0  9999,2 50820  53.2143  95.4066 0000935  91.7656 268.3443 15.08854061 63395,6917.837,95.437,540.349,539.056,0.0
50820.0,STARLINK-3339,PAYLOAD,2023-02-27 14:34:57,15.08884894,0.0001121,53.2142,94.5152,80.6611,279.4508,0.0042756,0.00068504,0.0,0 STARLINK-3339,1 50820U 22001T   23058.60760872  .00068504  00000-0  42756-2 0  9993,2 50820  53.2142  94.5152 0001121  80.6611 279.4508 15.08884894 64704,6917.743,95.435,540.384,538.833,0.0
50820.0,STARLINK-3339,PAYLOAD,2023-02-27 19:21:06,15.08848838,2.82e-05,53.2143,93.6224,181.4189,178.6803,0.0010813,0.00016967,0.0,0 STARLINK-3339,1 50820U 22001T   23058.80632837  .00016967  00000-0  10813-2 0  9999,2 50820  53.2143  93.6224 0000282 181.4189 178.6803 15.08848838 63459,6917.853,95.437,539.913,539.523,0.0
50820.0,STARLINK-3339,PAYLOAD,2023-02-28 06:28:48,15.08860451,8.68e-05,53.2142,91.5412,107.2081,252.9006,0.0018376,0.00029095,0.0,0 STARLINK-3339,1 50820U 22001T   23059.27000984  .00029095  00000-0  18376-2 0  9991,2 50820  53.2142  91.5412 0000868 107.2081 252.9006 15.08860451 64807,6917.818,95.436,540.283,539.082,0.0
50820.0,STARLINK-3339,PAYLOAD,2023-02-28 09:39:35,15.08860556,0.000111,53.2141,90.946,98.8816,261.2302,0.0014427,0.0002276,0.0,0 STARLINK-3339,1 50820U 22001T   23059.40248875  .00022760  00000-0  14427-2 0  9994,2 50820  53.2141  90.9460 0001110  98.8816 261.2302 15.08860556 63542,6917.818,95.436,540.45,538.915,0.0
50820.0,STARLINK-3339,PAYLOAD,2023-02-28 19:11:54,15.08819258,0.0001186,53.2141,89.162,110.3126,249.7993,-0.0013919,-0.00022359,0.0,0 STARLINK-3339,1 50820U 22001T   23059.79993115 -.00022359  00000-0 -13919-2 0  9991,2 50820  53.2141  89.1620 0001186 110.3126 249.7993 15.08819258 63604,6917.944,95.439,540.629,538.988,0.0
50820.0,STARLINK-3339,PAYLOAD,2023-03-01 11:05:46,15.08820184,0.0001487,53.2141,86.1881,101.3206,258.7953,0.0019507,0.00030877,0.0,0 STARLINK-3339,1 50820U 22001T   23060.46234901  .00030877  00000-0  19507-2 0  9999,2 50820  53.2141  86.1881 0001487 101.3206 258.7953 15.08820184 64981,6917.941,95.439,540.835,538.777,0.0
50820.0,STARLINK-3339,PAYLOAD,2023-03-01 19:02:42,15.08833815,0.0001522,53.2143,84.7013,100.8517,259.2647,0.00162,0.00025584,0.0,0 STARLINK-3339,1 50820U 22001T   23060.79355205  .00025584  00000-0  16200-2 0  9992,2 50820  53.2143  84.7013 0001522 100.8517 259.2647 15.08833815 63758,6917.899,95.438,540.817,538.711,0.0
50820.0,STARLINK-3339,PAYLOAD,2023-03-02 01:24:15,15.08846789,0.0001527,53.2149,83.5114,101.196,258.9204,0.0015385,0.00024287,0.0,0 STARLINK-3339,1 50820U 22001T   23061.05851161  .00024287  00000-0  15385-2 0  9996,2 50820  53.2149  83.5114 0001527 101.1960 258.9204 15.08846789 65070,6917.86,95.437,540.781,538.668,0.0
50820.0,STARLINK-3339,PAYLOAD,2023-03-02 18:53:29,15.08857632,0.000176,53.2164,80.2393,94.9351,265.1842,0.00090072,0.00014083,0.0,0 STARLINK-3339,1 50820U 22001T   23061.78714596  .00014083  00000-0  90072-3 0  9996,2 50820  53.2164  80.2393 0001760  94.9351 265.1842 15.08857632 63909,6917.826,95.436,540.909,538.474,0.0
50820.0,STARLINK-3339,PAYLOAD,2023-03-03 07:36:33,15.08878849,0.0001783,53.2155,77.8605,97.5958,262.5237,0.0020892,0.00033154,0.0,0 STARLINK-3339,1 50820U 22001T   23062.31705776  .00033154  00000-0  20892-2 0  9998,2 50820  53.2155  77.8605 0001783  97.5958 262.5237 15.08878849 65267,6917.762,95.435,540.86,538.393,0.0
50820.0,STARLINK-3339,PAYLOAD,2023-03-04 05:51:56,15.08876202,0.0002155,53.2149,73.6967,137.0108,223.1053,0.0019444,0.00030824,0.0,0 STARLINK-3339,1 50820U 22001T   23063.24440848  .00030824  00000-0  19444-2 0  9999,2 50820  53.2149  73.6967 0002155 137.0108 223.1053 15.08876202 65402,6917.77,95.435,541.126,538.144,0.0
50820.0,STARLINK-3339,PAYLOAD,2023-03-04 12:13:29,15.088738,0.0001811,53.215,72.5067,124.4057,235.7107,0.0010356,0.00016247,0.0,0 STARLINK-3339,1 50820U 22001T   23063.50936444  .00016247  00000-0  10356-2 0  9996,2 50820  53.2150  72.5067 0001811 124.4057 235.7107 15.08873800 65448,6917.777,95.435,540.895,538.389,0.0
50820.0,STARLINK-3339,PAYLOAD,2023-03-04 16:59:38,15.08841306,0.0001184,53.2162,71.6196,103.3634,256.749,-0.00017805,-3.12e-05,0.0,0 STARLINK-3339,1 50820U 22001T   23063.70808897 -.00003120  00000-0 -17805-3 0  9993,2 50820  53.2162  71.6196 0001184 103.3634 256.7490 15.08841306 65471,6917.876,95.437,540.56,538.922,0.0
50820.0,STARLINK-3339,PAYLOAD,2023-03-05 05:42:44,15.08834399,0.0001579,53.2162,69.2389,95.3129,264.8044,0.00033667,5.073e-05,0.0,0 STARLINK-3339,1 50820U 22001T   23064.23801371  .00005073  00000-0  33667-3 0  9993,2 50820  53.2162  69.2389 0001579  95.3129 264.8044 15.08834399 64271,6917.898,95.438,540.855,538.67,0.0
50820.0,STARLINK-3339,PAYLOAD,2023-03-05 16:50:26,15.08836176,0.0001372,53.2149,67.1527,88.2078,271.9072,0.00040203,6.115e-05,0.0,0 STARLINK-3339,1 50820U 22001T   23064.70169568  .00006115  00000-0  40203-3 0  9992,2 50820  53.2149  67.1527 0001372  88.2078 271.9072 15.08836176 64345,6917.892,95.438,540.706,538.808,0.0
50820.0,STARLINK-3339,PAYLOAD,2023-03-06 05:33:31,15.08844296,0.0001311,53.2151,64.7743,93.784,266.3302,0.00052102,8.015e-05,0.0,0 STARLINK-3339,1 50820U 22001T   23065.23161531  .00008015  00000-0  52102-3 0  9995,2 50820  53.2151  64.7743 0001311  93.7840 266.3302 15.08844296 65709,6917.867,95.437,540.639,538.825,0.0
50820.0,STARLINK-3339,PAYLOAD,2023-03-06 16:41:13,15.08830533,0.0001321,53.2153,62.6957,118.7167,241.3958,-0.00014829,-2.647e-05,0.0,0 STARLINK-3339,1 50820U 22001T   23065.69529672 -.00002647  00000-0 -14829-3 0  9990,2 50820  53.2153  62.6957 0001321 118.7167 241.3958 15.08830533 65772,6917.909,95.438,540.688,538.86,0.0
50820.0,STARLINK-3339,PAYLOAD,2023-03-07 08:35:05,15.08844968,0.0001838,53.216,59.7214,106.8412,253.2782,0.00078075,0.00012161,0.0,0 STARLINK-3339,1 50820U 22001T   23066.35770063  .00012161  00000-0  78075-3 0  9999,2 50820  53.2160  59.7214 0001838 106.8412 253.2782 15.08844968 65872,6917.865,95.437,541.002,538.459,0.0
50820.0,STARLINK-3339,PAYLOAD,2023-03-07 16:32:01,15.08836705,0.0001614,53.2156,58.2354,98.9614,261.1561,0.00064632,0.00010012,0.0,0 STARLINK-3339,1 50820U 22001T   23066.68890378  .00010012  00000-0  64632-3 0  9994,2 50820  53.2156  58.2354 0001614  98.9614 261.1561 15.08836705 65922,6917.89,95.438,540.872,538.639,0.0
50820.0,STARLINK-3339,PAYLOAD,2023-03-08 16:22:48,15.08843276,0.0001222,53.2158,53.774,98.8661,261.2469,0.00074983,0.00011667,0.0,0 STARLINK-3339,1 50820U 22001T   23067.68250409  .00011667  00000-0  74983-3 0  9997,2 50820  53.2158  53.7740 0001222  98.8661 261.2469 15.08843276 64792,6917.87,95.437,540.581,538.89,0.0
